[{"OBJECT_NAME":"STARLINK-5199","OBJECT_ID":"2022-141AW","EPOCH":"2026-03-09T22:14:32.743104","MEAN_MOTION":15.08829562,"ECCENTRICITY":0.00011742,"INCLINATION":53.2199,"RA_OF_ASC_NODE":353.0519,"ARG_OF_PERICENTER":104.6511,"MEAN_ANOMALY":255.4612,"EPHEMERIS_TYPE":0,"CLASSIFICATION_TYPE":"U","NORAD_CAT_ID":54201,"ELEMENT_SET_NO":999,"REV_AT_EPOCH":18603,"BSTAR":-0.00021033102,"MEAN_MOTION_DOT":-3.633e-5,"MEAN_MOTION_DDOT":0},{"OBJECT_NAME":"USA 60","OBJECT_ID":"1990-050B","EPOCH":"2026-03-09T13:24:55.962720","MEAN_MOTION":13.64521674,"ECCENTRICITY":0.0879763,"INCLINATION":63.2945,"RA_OF_ASC_NODE":117.426,"ARG_OF_PERICENTER":81.005,"MEAN_ANOMALY":288.9398,"EPHEMERIS_TYPE":0,"CLASSIFICATION_TYPE":"U","NORAD_CAT_ID":20682,"ELEMENT_SET_NO":999,"REV_AT_EPOCH":9025,"BSTAR":0.00037184,"MEAN_MOTION_DOT":5.55e-5,"MEAN_MOTION_DDOT":0}]
